NORAD_CAT_ID,OBJECT_NAME,OBJECT_TYPE,EPOCH,MEAN_MOTION,ECCENTRICITY,INCLINATION,RA_OF_ASC_NODE,ARG_OF_PERICENTER,MEAN_ANOMALY,BSTAR,MEAN_MOTION_DOT,MEAN_MOTION_DDOT,TLE_LINE0,TLE_LINE1,TLE_LINE2,SEMIMAJOR_AXIS,PERIOD,APOGEE,PERIGEE,DECAYED
53915.0,STARLINK-5017,PAYLOAD,2022-09-30 12:00:00,15.89876332,0.0035007,53.2173,225.9658,62.5837,348.9113,-0.0040424,-0.01299885,0.00048285,0 STARLINK-5017,1 53915U 22119AF  22273.50001157 -.01299885  48285-3 -40424-2 0  9993,2 53915  53.2173 225.9658 0035007  62.5837 348.9113 15.89876332  1304,6680.766,90.573,326.019,279.244,0.0
53915.0,STARLINK-5017,PAYLOAD,2022-09-30 22:00:00,15.88938129,0.0030175999999999,53.2189,223.8539,64.6294,212.2066,-0.0051438999999999,-0.01550544,0.00066037,0 STARLINK-5017,1 53915U 22119AF  22273.91667824 -.01550544  66037-3 -51439-2 0  9992,2 53915  53.2189 223.8539 0030176  64.6294 212.2066 15.88938129  1300,6683.396,90.627,325.4290000000001,285.093,0.0
53915.0,STARLINK-5017,PAYLOAD,2022-10-01 06:00:00,15.87904446,0.0027145,53.2191,222.1693,64.9395,319.1321,-0.0044872,-0.01276716,0.00045878,0 STARLINK-5017,1 53915U 22119AF  22274.25001157 -.01276716  45878-3 -44872-2 0  9990,2 53915  53.2191 222.1693 0027145  64.9395 319.1321 15.87904446  1410,6686.295999999999,90.686,326.311,290.011,0.0
53915.0,STARLINK-5017,PAYLOAD,2022-10-01 14:00:01,15.87021557,0.0023731,53.2187,220.4831,65.0049,65.184,-0.0046101,-0.01246055,0.00043538,0 STARLINK-5017,1 53915U 22119AF  22274.58334491 -.01246055  43538-3 -46101-2 0  9997,2 53915  53.2187 220.4831 0023731  65.0049  65.1840 15.87021557  1300,6688.776,90.736,326.514,294.767,0.0
53915.0,STARLINK-5017,PAYLOAD,2022-10-01 22:00:00,15.86180755,0.0020042,53.2184,218.7997,66.1671,169.0827,-0.0050693,-0.01304927,0.00046997,0 STARLINK-5017,1 53915U 22119AF  22274.91667824 -.01304927  46997-3 -50693-2 0  9999,2 53915  53.2184 218.7997 0020042  66.1671 169.0827 15.86180755  1523,6691.139,90.784,326.414,299.594,0.0
53915.0,STARLINK-5017,PAYLOAD,2022-10-02 04:00:00,15.85568211,0.0017403,53.2174,217.5401,64.5102,158.8366,-0.0054924,-0.01204142,0.0,0 STARLINK-5017,1 53915U 22119AF  22275.16667824 -.01204142  00000-0 -54924-2 0  9998,2 53915  53.2174 217.5401 0017403  64.5102 158.8366 15.85568211  1561,6692.861999999999,90.819,326.375,303.08,0.0
53915.0,STARLINK-5017,PAYLOAD,2022-10-02 14:00:01,15.84502203,0.0012990999999999,53.2188,215.4417,63.5242,18.7014,-0.0058928999999999,-0.01238547,0.0,0 STARLINK-5017,1 53915U 22119AF  22275.58334491 -.01238547  00000-0 -58929-2 0  9990,2 53915  53.2188 215.4417 0012991  63.5242  18.7014 15.84502203  1305,6695.864000000001,90.88,326.427,309.03,0.0
53915.0,STARLINK-5017,PAYLOAD,2022-10-02 20:00:01,15.83803024,0.0010379,53.2177,214.1823,60.8847,7.9173,-0.0057513999999999,-0.01150947,0.0,0 STARLINK-5017,1 53915U 22119AF  22275.83334491 -.01150947  00000-0 -57514-2 0  9994,2 53915  53.2177 214.1823 0010379  60.8847   7.9173 15.83803024  1679,6697.834,90.92,326.651,312.748,0.0
53915.0,STARLINK-5017,PAYLOAD,2022-10-02 22:00:00,15.835818599999998,0.0010023999999999,53.2187,213.7651,64.1236,120.0693,-0.0058174,-0.01172478,0.0,0 STARLINK-5017,1 53915U 22119AF  22275.91667824 -.01172478  00000-0 -58174-2 0  9998,2 53915  53.2187 213.7651 0010024  64.1236 120.0693 15.83581860  1305,6698.458000000001,90.933,327.0370000000001,313.608,0.0
53915.0,STARLINK-5017,PAYLOAD,2022-10-03 04:00:01,15.82949782,0.0007586,53.2175,212.51,58.6391,111.3797,-0.0061415,-0.01195044,0.0,0 STARLINK-5017,1 53915U 22119AF  22276.16668981 -.01195044  00000-0 -61415-2 0  9997,2 53915  53.2175 212.5100 0007586  58.6391 111.3797 15.82949782  1721,6700.241,90.969,327.189,317.023,0.0
53915.0,STARLINK-5017,PAYLOAD,2022-10-03 12:00:00,15.82104074,0.0003577,53.2173,210.8364,44.0181,226.0426,-0.0066319,-0.01231004,0.0,0 STARLINK-5017,1 53915U 22119AF  22276.50001157 -.01231004  00000-0 -66319-2 0  9996,2 53915  53.2173 210.8364 0003577  44.0181 226.0426 15.82104074  1779,6702.628000000002,91.018,326.891,322.096,0.0
53915.0,STARLINK-5017,PAYLOAD,2022-10-03 14:00:01,15.81925784,0.0003011,53.2186,210.42,34.4944,350.4088,-0.0069438,-0.01272148,0.0,0 STARLINK-5017,1 53915U 22119AF  22276.58334491 -.01272148  00000-0 -69438-2 0  9993,2 53915  53.2186 210.4200 0003011  34.4944 350.4088 15.81925784  1304,6703.132,91.028,327.015,322.9790000000001,0.0
53915.0,STARLINK-5017,PAYLOAD,2022-10-03 22:00:00,15.81041648,0.0002195,53.2183,208.7498,308.7931,174.9272,-0.0070746,-0.01246165,0.0,0 STARLINK-5017,1 53915U 22119AF  22276.91667824 -.01246165  00000-0 -70746-2 0  9993,2 53915  53.2183 208.7498 0002195 308.7931 174.9272 15.81041648  1307,6705.630999999999,91.079,328.968,326.024,0.0
53915.0,STARLINK-5017,PAYLOAD,2022-10-04 04:00:00,15.80336546,0.0004328,53.2176,207.4992,283.1507,184.0194,-0.006842,-0.01176369,0.0,0 STARLINK-5017,1 53915U 22119AF  22277.16667824 -.01176369  00000-0 -68420-2 0  9995,2 53915  53.2176 207.4992 0004328 283.1507 184.0194 15.80336546  1880,6707.625,91.12,332.39300000000014,326.587,0.0
53915.0,STARLINK-5017,PAYLOAD,2022-10-04 14:00:01,15.79305637,0.0006814,53.2186,205.4171,270.0111,48.203,-0.0076789,-0.01251641,0.0,0 STARLINK-5017,1 53915U 22119AF  22277.58334491 -.01251641  00000-0 -76789-2 0  9996,2 53915  53.2186 205.4171 0006814 270.0111  48.2030 15.79305637  1948,6710.544,91.179,336.981,327.836,0.0
53915.0,STARLINK-5017,PAYLOAD,2022-10-04 22:00:00,15.78459348,0.0004076,53.2185,203.7538,278.3064,135.5798,-0.0082171,-0.01281576,0.0,0 STARLINK-5017,1 53915U 22119AF  22277.91667824 -.01281576  00000-0 -82171-2 0  9994,2 53915  53.2185 203.7538 0004076 278.3064 135.5798 15.78459348  1300,6712.941999999999,91.228,337.543,332.071,0.0
53915.0,STARLINK-5017,PAYLOAD,2022-10-05 14:00:01,15.76675226,9.87e-05,53.2183,200.433,49.6098,192.5997,-0.0083971,-0.01214722,0.0,0 STARLINK-5017,1 53915U 22119AF  22278.58335648 -.01214722  00000-0 -83971-2 0  9992,2 53915  53.2183 200.4330 0000987  49.6098 192.5997 15.76675226  2101,6718.005,91.331,340.533,339.207,0.0
53915.0,STARLINK-5017,PAYLOAD,2022-10-05 22:00:00,15.75799094,0.0001019,53.2182,198.7763,77.6249,257.0742,-0.0086430999999999,-0.01203862,0.0,0 STARLINK-5017,1 53915U 22119AF  22278.91667824 -.01203862  00000-0 -86431-2 0  9990,2 53915  53.2182 198.7763 0001019  77.6249 257.0742 15.75799094  1300,6720.495,91.382,343.045,341.675,0.0
53915.0,STARLINK-5017,PAYLOAD,2022-10-06 14:00:01,15.73914289,0.0001019,53.2175,195.467,83.6892,73.0124,-0.0057802,-0.00765025,0.0,0 STARLINK-5017,1 53915U 22119AF  22279.58334491 -.00765025  00000-0 -57802-2 0  9998,2 53915  53.2175 195.4670 0001019  83.6892  73.0124 15.73914289  1307,6725.859,91.492,348.41,347.039,0.0
53915.0,STARLINK-5017,PAYLOAD,2022-10-06 22:00:00,15.73228722,0.0001105,53.2176,193.8173,80.8933,165.2767,-0.00029091,-0.00041296,0.0,0 STARLINK-5017,1 53915U 22119AF  22279.91667824 -.00041296  00000-0 -29091-3 0  9991,2 53915  53.2176 193.8173 0001105  80.8933 165.2767 15.73228722  2318,6727.813,91.532,350.422,348.935,0.0
53915.0,STARLINK-5017,PAYLOAD,2022-10-06 22:42:55,15.73211511,0.0001056,53.2175,193.67,84.7149,330.2867,-9.6844e-05,-0.00014194,0.0,0 STARLINK-5017,1 53915U 22119AF  22279.94646991 -.00014194  00000-0 -96844-4 0  9994,2 53915  53.2175 193.6700 0001056  84.7149 330.2867 15.73211511  1309,6727.861999999999,91.533,350.43800000000016,349.017,0.0
53915.0,STARLINK-5017,PAYLOAD,2022-10-07 04:00:00,15.73266022,9.77e-05,53.224,192.5955,79.557,143.3192,-2.6104e-05,-4.292e-05,0.0,0 STARLINK-5017,1 53915U 22119AF  22280.16667824 -.00004292  00000-0 -26104-4 0  9998,2 53915  53.2240 192.5955 0000977  79.5570 143.3192 15.73266022  2350,6727.706999999999,91.529,350.22900000000016,348.915,0.0
53915.0,STARLINK-5017,PAYLOAD,2022-10-07 14:00:01,15.73248283,0.0001030999999999,53.2233,190.5316,95.8587,328.2769,0.0004461,0.00062584,0.0,0 STARLINK-5017,1 53915U 22119AF  22280.58334491  .00062584  00000-0  44610-3 0  9992,2 53915  53.2233 190.5316 0001031  95.8587 328.2769 15.73248283  1309,6727.7580000000025,91.53,350.316,348.92900000000014,0.0
53915.0,STARLINK-5017,PAYLOAD,2022-10-07 20:00:01,15.73325795,0.0001122,53.223,189.2951,93.5526,307.2854,-0.0014906,-0.00205877,0.0,0 STARLINK-5017,1 53915U 22119AF  22280.83334491 -.00205877  00000-0 -14906-2 0  9990,2 53915  53.2230 189.2951 0001122  93.5526 307.2854 15.73325795  2469,6727.5369999999975,91.526,350.156,348.647,0.0
53915.0,STARLINK-5017,PAYLOAD,2022-10-07 22:00:00,15.73300268,0.0001127999999999,53.2228,188.8833,91.3012,61.798,-0.0016357,-0.00225102,0.0,0 STARLINK-5017,1 53915U 22119AF  22280.91667824 -.00225102  00000-0 -16357-2 0  9993,2 53915  53.2228 188.8833 0001128  91.3012  61.7980 15.73300268  1304,6727.609,91.527,350.233,348.715,0.0
53915.0,STARLINK-5017,PAYLOAD,2022-10-08 12:00:00,15.73089883,9.990000000000004e-05,53.2208,185.9968,93.8831,124.784,0.00063949,0.00089665,0.0,0 STARLINK-5017,1 53915U 22119AF  22281.50001157  .00089665  00000-0  63949-3 0  9990,2 53915  53.2208 185.9968 0000999  93.8831 124.7840 15.73089883  2561,6728.209,91.54,350.746,349.402,0.0
53915.0,STARLINK-5017,PAYLOAD,2022-10-08 14:00:01,15.7308329,0.0001018,53.2202,185.5842,98.3668,232.509,0.00096853,0.00136854,0.0,0 STARLINK-5017,1 53915U 22119AF  22281.58334491  .00136854  00000-0  96853-3 0  9991,2 53915  53.2202 185.5842 0001018  98.3668 232.5090 15.73083290  1305,6728.228,91.54,350.778,349.408,0.0
53915.0,STARLINK-5017,PAYLOAD,2022-10-08 22:00:00,15.73220165,0.0001081,53.2192,183.9365,93.9546,325.7629,0.00011322,0.00015312,0.0,0 STARLINK-5017,1 53915U 22119AF  22281.91667824  .00015312  00000-0  11322-3 0  9990,2 53915  53.2192 183.9365 0001081  93.9546 325.7629 15.73220165  1308,6727.8380000000025,91.532,350.43,348.975,0.0
53915.0,STARLINK-5017,PAYLOAD,2022-10-09 12:00:00,15.73247065,0.0001065999999999,53.2187,181.0492,99.6201,25.7577,7.0895e-05,9.361e-05,0.0,0 STARLINK-5017,1 53915U 22119AF  22282.50001157  .00009361  00000-0  70895-4 0  9995,2 53915  53.2187 181.0492 0001066  99.6201  25.7577 15.73247065  2720,6727.761,91.53,350.343,348.909,0.0
